IRIDIUM 63 [-]          
1 25286U 98021B   23340.47614897  .00000612  00000+0  20605-3 0  9995
2 25286  86.3964 316.1694 0002035  88.0117 272.1313 14.35517762343668
IRIDIUM 71 [-]          
1 25320U 98026B   23341.01370366  .00000497  00000+0  15168-3 0  9999
2 25320  86.3962 325.7090 0004139 108.5487 251.6162 14.40022532343482
IRIDIUM 73 [-]          
1 25344U 98032C   23340.84593281  .00000805  00000+0  20200-3 0  9991
2 25344  86.4404 283.4981 0003018  85.4454 274.7095 14.50177591349609
IRIDIUM 82 [-]          
1 25467U 98051A   23341.14433380  .00009397  00000+0  53475-3 0  9990
2 25467  86.3958  16.7082 0142052 205.4632 153.9561 15.04420664339417
IRIDIUM 2 [-]           
1 25527U 98066A   23341.18783213  .00037550  00000+0  73144-3 0  9997
2 25527  85.5185  65.7178 0003826   2.9218 357.2060 15.47380144377300
